IRIDIUM 144             
1 43249U 18030A   24131.84665805  .00000199  00000+0  63889-4 0  9993
2 43249  86.3968 251.0595 0002048  97.1840 262.9588 14.34219125320157
IRIDIUM 149             
1 43250U 18030B   24131.85300150  .00000432  00000+0  14702-3 0  9994
2 43250  86.3969 251.0324 0002089  98.6116 261.5316 14.34219153320174
IRIDIUM 157             
1 43251U 18030C   24131.87203028  .00000221  00000+0  71958-4 0  9996
2 43251  86.3971 251.0604 0002514  96.2441 263.9042 14.34217657320154
IRIDIUM 140             
1 43252U 18030D   24131.89105675  .00000518  00000+0  17775-3 0  9993
2 43252  86.3969 251.0670 0001807  94.8400 265.3003 14.34217800320218
IRIDIUM 145             
1 43253U 18030E   24131.87837121  .00000734  00000+0  25505-3 0  9990
2 43253  86.3970 251.0458 0001857 103.0184 257.1220 14.34220118320140
IRIDIUM 146             
1 43254U 18030F   24131.85933676  .00000804  00000+0  27987-3 0  9995
2 43254  86.3970 251.0691 0001964  99.0622 261.0796 14.34224138320159
IRIDIUM 148             
1 43255U 18030G   24131.82763095  .00000619  00000+0  21407-3 0  9994
2 43255  86.3971 251.1137 0002269 101.9779 258.1671 14.34220375320194
IRIDIUM 142             
1 43256U 18030H   24131.86568770 -.00000097  00000+0 -41818-4 0  9993
2 43256  86.3967 251.0151 0002000 103.3994 256.7425 14.34217095320155
